EUTELSAT 53A            
1 40277U 14064A   26159.21163319  .00000113  00000+0  00000+0 0  9997
2 40277   0.0134 284.0727 0000841 268.0611 193.6655  1.00271918 41477
GSAT-16                 
1 40332U 14078A   26159.49720476  .00000101  00000+0  00000+0 0  9994
2 40332   0.0666  93.0124 0007757 352.1072  45.8340  1.00272055 42021
DIRECTV 14              
1 40333U 14078B   26159.40995072 -.00000110  00000+0  00000+0 0  9993
2 40333   0.0093   4.1457 0000454 184.4721 116.5254  1.00271360 41951
YAMAL 401               
1 40345U 14082A   26157.85359110  .00000000  00000+0  00000+0 0  9992
2 40345   0.0116 319.1920 0000565 279.6182  53.7004  1.00271056 41817
ASTRA 2G                
1 40364U 14089A   26159.27796667  .00000165  00000+0  00000+0 0  9992
2 40364   0.0505  14.0343 0004972  46.4719 324.4202  1.00271005 41870
FENGYUN 2G              
1 40367U 14090A   26158.79303955 -.00000288  00000+0  00000+0 0  9994
2 40367   5.6148  72.9276 0003376 153.3297  55.0224  1.00277410 41902
MUOS-3                  
1 40374U 15002A   26159.34072381 -.00000114  00000+0  00000+0 0  9992
2 40374   4.5046  43.4885 0051584 178.5155 141.9510  1.00272049 41490
INMARSAT 5-F2           
1 40384U 15005A   26159.33283711 -.00000270  00000+0  00000+0 0  9999
2 40384   0.0181 354.0273 0000546 223.2901 104.2260  1.00271182 40909
ABS-3A                  
1 40424U 15010A   26159.34315049  .00000000  00000+0  00000+0 0  9991
2 40424   0.0313  51.2639 0002242 334.1908 351.7849  1.00267016 41282
EUTELSAT 115 WEST B     
1 40425U 15010B   26159.46354926 -.00000009  00000+0  00000+0 0  9992
2 40425   0.0103 144.7550 0000125 126.4297  37.6366  1.00270092 41306
EXPRESS-AM7             
1 40505U 15012A   26159.49425808  .00000166  00000+0  00000+0 0  9997
2 40505   0.0260  70.8386 0003176  13.8512  30.1338  1.00273726 40924
BEIDOU-3S IGSO-1S       
1 40549U 15019A   26158.86267383 -.00000167  00000+0  00000+0 0  9996
2 40549  49.2147 295.5748 0038597 191.2136 172.2668  1.00252763 40985
THOR 7                  
1 40613U 15022A   26159.34358382  .00000007  00000+0  00000+0 0  9998
2 40613   0.0133 148.2220 0002652 290.5420 301.0084  1.00271318 40721
TURKMENALEM52E/MONACOSAT
1 40617U 15023A   26159.49659808  .00000120  00000+0  00000+0 0  9992
2 40617   0.0487  84.5960 0002961 350.8545  52.2325  1.00273032 40763
DIRECTV 15              
1 40663U 15026A   26159.46299493 -.00000087  00000+0  00000+0 0  9996
2 40663   0.0180   0.4452 0000480 239.3873  80.8330  1.00271192 40371
SKY MEXICO-1            
1 40664U 15026B   26159.45182318 -.00000218  00000+0  00000+0 0  9999
2 40664   0.0160 290.9008 0002162 165.8974 243.9059  1.00271128 40365
METEOSAT-11 (MSG-4)     
1 40732U 15034A   26159.27432663  .00000079  00000+0  00000+0 0  9999
2 40732   3.1800  71.1599 0001694   5.8925 287.8003  1.00277544  7129
STAR ONE C4             
1 40733U 15034B   26159.47247596 -.00000249  00000+0  00000+0 0  9991
2 40733   0.0227   6.3161 0002331  60.6921 289.9481  1.00273174 39929
WGS F7 (USA 263)        
1 40746U 15036A   26159.51225240  .00000033  00000+0  00000+0 0  9994
2 40746   0.0036 355.0100 0000288 281.1716 340.1067  1.00269931 39789
INTELSAT 34 (IS-34)     
1 40874U 15039A   26158.76238372 -.00000270  00000+0  00000+0 0  9999
2 40874   0.0104 319.7014 0000524  42.0234 113.4137  1.00271453 39545
EUTELSAT 8 WEST B       
1 40875U 15039B   26159.34211049 -.00000050  00000+0  00000+0 0  9993
2 40875   0.0636 355.9416 0003866  78.3181 297.6326  1.00271432 39563
GSAT-6                  
1 40880U 15041A   26159.50266477 -.00000144  00000+0  00000+0 0  9999
2 40880   1.8979  82.6986 0003401 350.2877  87.3844  1.00271486 39516
INMARSAT 5-F3           
1 40882U 15042A   26159.51017149  .00000066  00000+0  00000+0 0  9995
2 40882   0.0028  74.6737 0000333  73.2300 112.2957  1.00267618 39484
MUOS-4                  
1 40887U 15044A   26159.14463939 -.00000079  00000+0  00000+0 0  9998
2 40887   4.3122  42.1809 0059480   4.7607 336.6985  1.00271791 39465
TJS-1                   
1 40892U 15046A   26159.44572410 -.00000139  00000+0  00000+0 0  9991
2 40892   0.2997  84.9929 0005734 354.9118 132.4494  1.00272438 39481
EXPRESS-AM8             
1 40895U 15048A   26158.41414188 -.00000097  00000+0  00000+0 0  9992
2 40895   0.0136 286.0221 0000109  60.0787  44.8137  1.00273247 39248
BEIDOU-3S IGSO-2S       
1 40938U 15053A   26158.84164630 -.00000145  00000+0  00000+0 0  9991
2 40938  49.2368 258.8953 0065022 191.8568 204.1208  1.00261612 39267
SKY MUSTER 1 (NBN1A)    
1 40940U 15054A   26159.44277742  .00000000  00000+0  00000+0 0  9990
2 40940   0.0231 329.6883 0002154 127.0778  99.7085  1.00263210 39171
ARSAT 2                 
1 40941U 15054B   26159.39896441 -.00000209  00000+0  00000+0 0  9990
2 40941   0.0472  71.8036 0002049 354.6507 252.9650  1.00270084 39219
MORELOS 3               
1 40946U 15056A   26159.46389594 -.00000029  00000+0  00000+0 0  9991
2 40946   3.1801  14.8509 0001570 355.1227 300.7645  1.00271468 39199
APSTAR-9                
1 40982U 15059A   26159.51446012 -.00000250  00000+0  00000+0 0  9995
2 40982   0.0161 359.1520 0002278 182.3359  42.6323  1.00270107 39031
TURKSAT 4B              
1 40984U 15060A   26159.49625140  .00000131  00000+0  00000+0 0  9994
2 40984   0.0165  13.6863 0002474  50.9133  60.9521  1.00268684 39015
