OBJECT_NAME,OBJECT_ID,EPOCH,MEAN_MOTION,ECCENTRICITY,INCLINATION,RA_OF_ASC_NODE,ARG_OF_PERICENTER,MEAN_ANOMALY,EPHEMERIS_TYPE,CLASSIFICATION_TYPE,NORAD_CAT_ID,ELEMENT_SET_NO,REV_AT_EPOCH,BSTAR,MEAN_MOTION_DOT,MEAN_MOTION_DDOT
EUTELSAT 53A,2014-064A,2026-06-08T05:04:45.107616,1.00271918,.0000841,0.0134,284.0727,268.0611,193.6655,0,U,40277,999,4147,0,.113E-5,0
GSAT-16,2014-078A,2026-06-08T11:55:58.491264,1.00272055,.0007757,0.0666,93.0124,352.1072,45.8340,0,U,40332,999,4202,0,.101E-5,0
DIRECTV 14,2014-078B,2026-06-08T09:50:19.742208,1.00271360,.0000454,0.0093,4.1457,184.4721,116.5254,0,U,40333,999,4195,0,-.11E-5,0
YAMAL 401,2014-082A,2026-06-06T20:29:10.271040,1.00271056,.00005657,0.0116,319.1920,279.6182,53.7004,0,U,40345,999,4181,0,0,0
ASTRA 2G,2014-089A,2026-06-08T06:40:16.320288,1.00271005,.0004972,0.0505,14.0343,46.4719,324.4202,0,U,40364,999,4187,0,.165E-5,0
FENGYUN 2G,2014-090A,2026-06-07T19:01:58.617120,1.00277410,.00033766,5.6148,72.9276,153.3297,55.0224,0,U,40367,999,4190,0,-.288E-5,0
MUOS-3,2015-002A,2026-06-08T08:10:38.537184,1.00272049,.0051584,4.5046,43.4885,178.5155,141.9510,0,U,40374,999,4149,0,-.114E-5,0
INMARSAT 5-F2,2015-005A,2026-06-08T07:59:17.126304,1.00271182,.0000546,0.0181,354.0273,223.2901,104.2260,0,U,40384,999,4090,0,-.27E-5,0
ABS-3A,2015-010A,2026-06-08T08:14:08.202336,1.00267016,.0002242,0.0313,51.2639,334.1908,351.7849,0,U,40424,999,4128,0,0,0
EUTELSAT 115 WEST B,2015-010B,2026-06-08T11:07:30.656064,1.00270092,.0000125,0.0103,144.7550,126.4297,37.6366,0,U,40425,999,4130,0,-.9E-7,0
EXPRESS-AM7,2015-012A,2026-06-08T11:51:43.898112,1.00273726,.0003176,0.0260,70.8386,13.8512,30.1338,0,U,40505,999,4092,0,.166E-5,0
BEIDOU-3S IGSO-1S,2015-019A,2026-06-07T20:42:15.018912,1.00252763,.0038597,49.2147,295.5748,191.2136,172.2668,0,U,40549,999,4098,0,-.167E-5,0
THOR 7,2015-022A,2026-06-08T08:14:45.642048,1.00271318,.0002652,0.0133,148.2220,290.5420,301.0084,0,U,40613,999,4072,0,.7E-7,0
TURKMENALEM52E/MONACOSAT,2015-023A,2026-06-08T11:55:06.074112,1.00273032,.0002961,0.0487,84.5960,350.8545,52.2325,0,U,40617,999,4076,0,.12E-5,0
DIRECTV 15,2015-026A,2026-06-08T11:06:42.761952,1.00271192,.000048,0.0180,0.4452,239.3873,80.8330,0,U,40663,999,4037,0,-.87E-6,0
SKY MEXICO-1,2015-026B,2026-06-08T10:50:37.522752,1.00271128,.0002162,0.0160,290.9008,165.8974,243.9059,0,U,40664,999,4036,0,-.218E-5,0
METEOSAT-11 (MSG-4),2015-034A,2026-06-08T06:35:01.820832,1.00277544,.0001694,3.1800,71.1599,5.8925,287.8003,0,U,40732,999,712,0,.79E-6,0
STAR ONE C4,2015-034B,2026-06-08T11:20:21.922944,1.00273174,.0002331,0.0227,6.3161,60.6921,289.9481,0,U,40733,999,3992,0,-.249E-5,0
WGS F7 (USA 263),2015-036A,2026-06-08T12:17:38.607360,1.00269931,.0000288,0.0036,355.0100,281.1716,340.1067,0,U,40746,999,3978,0,.33E-6,0
INTELSAT 34 (IS-34),2015-039A,2026-06-07T18:17:49.953408,1.00271453,.00005246,0.0104,319.7014,42.0234,113.4137,0,U,40874,999,3954,0,-.27E-5,0
EUTELSAT 8 WEST B,2015-039B,2026-06-08T08:12:38.346336,1.00271432,.0003866,0.0636,355.9416,78.3181,297.6326,0,U,40875,999,3956,0,-.5E-6,0
GSAT-6,2015-041A,2026-06-08T12:03:50.236128,1.00271486,.0003401,1.8979,82.6986,350.2877,87.3844,0,U,40880,999,3951,0,-.144E-5,0
INMARSAT 5-F3,2015-042A,2026-06-08T12:14:38.816736,1.00267618,.0000333,0.0028,74.6737,73.2300,112.2957,0,U,40882,999,3948,0,.66E-6,0
MUOS-4,2015-044A,2026-06-08T03:28:16.843296,1.00271791,.00594804,4.3122,42.1809,4.7607,336.6985,0,U,40887,999,3946,0,-.79E-6,0
TJS-1,2015-046A,2026-06-08T10:41:50.562240,1.00272438,.0005734,0.2997,84.9929,354.9118,132.4494,0,U,40892,999,3948,0,-.139E-5,0
EXPRESS-AM8,2015-048A,2026-06-07T09:56:21.858432,1.00273247,.00001097,0.0136,286.0221,60.0787,44.8137,0,U,40895,999,3924,0,-.97E-6,0
BEIDOU-3S IGSO-2S,2015-053A,2026-06-07T20:11:58.240320,1.00261612,.00650221,49.2368,258.8953,191.8568,204.1208,0,U,40938,999,3926,0,-.145E-5,0
SKY MUSTER 1 (NBN1A),2015-054A,2026-06-08T10:37:35.969088,1.00263210,.0002154,0.0231,329.6883,127.0778,99.7085,0,U,40940,999,3917,0,0,0
ARSAT 2,2015-054B,2026-06-08T09:34:30.525024,1.00270084,.0002049,0.0472,71.8036,354.6507,252.9650,0,U,40941,999,3921,0,-.209E-5,0
MORELOS 3,2015-056A,2026-06-08T11:08:00.609216,1.00271468,.000157,3.1801,14.8509,355.1227,300.7645,0,U,40946,999,3919,0,-.29E-6,0
APSTAR-9,2015-059A,2026-06-08T12:20:49.354368,1.00270107,.0002278,0.0161,359.1520,182.3359,42.6323,0,U,40982,999,3903,0,-.25E-5,0
TURKSAT 4B,2015-060A,2026-06-08T11:54:36.120960,1.00268684,.0002474,0.0165,13.6863,50.9133,60.9521,0,U,40984,999,3901,0,.131E-5,0
